{"type": "FeatureCollection", "features": [ {"type": "Feature", "properties": {"norad_id": 58662, "name": "TIANMU-1 21", "group": "weather", "lat": 36.06758923383341, "lon": 88.31095194494789, "alt_km": 470.73593865518797, "timestamp": "2025-12-06T09:34:16.562010+00:00", "meta": {"OBJECT_NAME": "TIANMU-1 21", "OBJECT_ID": "2023-208C", "EPOCH": "2025-12-05T22:26:05.461152", "MEAN_MOTION": 15.31329872, "ECCENTRICITY": 0.00059265, "INCLINATION": 97.4383, "RA_OF_ASC_NODE": 93.3059, "ARG_OF_PERICENTER": 288.7275, "MEAN_ANOMALY": 71.3322, "EPHEMERIS_TYPE": 0, "CLASSIFICATION_TYPE": "U", "NORAD_CAT_ID": 58662, "ELEMENT_SET_NO": 999, "REV_AT_EPOCH": 10795, "BSTAR": 0.00055072085, "MEAN_MOTION_DOT": 0.00016612, "MEAN_MOTION_DDOT": 0}, "tle": {"line1": "1 58662U 23208C   25339.93478543  .00016612  00000+0  55072-3 0  9994", "line2": "2 58662  97.4383  93.3059 0005926 288.7275  71.3322 15.31329872107954"}}, "geometry": {"type": "Point", "coordinates": [88.31095194494789, 36.06758923383341]}}, {"type": "Feature", "properties": {"norad_id": 58663, "name": "TIANMU-1 22", "group": "weather", "lat": 47.603818616232026, "lon": 83.2835996964, "alt_km": 479.30221735789473, "timestamp": "2025-12-06T09:34:16.562022+00:00", "meta": {"OBJECT_NAME": "TIANMU-1 22", "OBJECT_ID": "2023-208D", "EPOCH": "2025-12-05T22:21:19.331136", "MEAN_MOTION": 15.27427736, "ECCENTRICITY": 0.00029598, "INCLINATION": 97.4391, "RA_OF_ASC_NODE": 91.0456, "ARG_OF_PERICENTER": 319.6838, "MEAN_ANOMALY": 40.4181, "EPHEMERIS_TYPE": 0, "CLASSIFICATION_TYPE": "U", "NORAD_CAT_ID": 58663, "ELEMENT_SET_NO": 999, "REV_AT_EPOCH": 10779, "BSTAR": 0.00049930446, "MEAN_MOTION_DOT": 0.00013342, "MEAN_MOTION_DDOT": 0}, "tle": {"line1": "1 58663U 23208D   25339.93147374  .00013342  00000+0  49930-3 0  9993", "line2": "2 58663  97.4391  91.0456 0002959 319.6838  40.4181 15.27427736107797"}}, "geometry": {"type": "Point", "coordinates": [83.2835996964, 47.603818616232026]}}, {"type": "Feature", "properties": {"norad_id": 58700, "name": "TIANMU-1 15", "group": "weather", "lat": -62.866659949862736, "lon": -32.92857808330335, "alt_km": 498.75495600837894, "timestamp": "2025-12-06T09:34:16.562049+00:00", "meta": {"OBJECT_NAME": "TIANMU-1 15", "OBJECT_ID": "2024-004A", "EPOCH": "2025-12-05T23:03:11.479392", "MEAN_MOTION": 15.24542086, "ECCENTRICITY": 0.0005585, "INCLINATION": 97.4624, "RA_OF_ASC_NODE": 161.4547, "ARG_OF_PERICENTER": 326.3713, "MEAN_ANOMALY": 33.717, "EPHEMERIS_TYPE": 0, "CLASSIFICATION_TYPE": "U", "NORAD_CAT_ID": 58700, "ELEMENT_SET_NO": 999, "REV_AT_EPOCH": 10631, "BSTAR": 0.00041631215, "MEAN_MOTION_DOT": 0.00010184, "MEAN_MOTION_DDOT": 0}, "tle": {"line1": "1 58700U 24004A   25339.96054953  .00010184  00000+0  41631-3 0  9994", "line2": "2 58700  97.4624 161.4547 0005585 326.3713  33.7170 15.24542086106319"}}, "geometry": {"type": "Point", "coordinates": [-32.92857808330335, -62.866659949862736]}}, {"type": "Feature", "properties": {"norad_id": 58701, "name": "TIANMU-1 16", "group": "weather", "lat": -28.528887007281774, "lon": 165.3697904248101, "alt_km": 495.48525432934366, "timestamp": "2025-12-06T09:34:16.562064+00:00", "meta": {"OBJECT_NAME": "TIANMU-1 16", "OBJECT_ID": "2024-004B", "EPOCH": "2025-12-05T22:40:07.286592", "MEAN_MOTION": 15.24293345, "ECCENTRICITY": 0.00048987, "INCLINATION": 97.4562, "RA_OF_ASC_NODE": 160.8353, "ARG_OF_PERICENTER": 324.8459, "MEAN_ANOMALY": 35.2454, "EPHEMERIS_TYPE": 0, "CLASSIFICATION_TYPE": "U", "NORAD_CAT_ID": 58701, "ELEMENT_SET_NO": 999, "REV_AT_EPOCH": 10631, "BSTAR": 0.00042189675, "MEAN_MOTION_DOT": 0.00010245, "MEAN_MOTION_DDOT": 0}, "tle": {"line1": "1 58701U 24004B   25339.94452878  .00010245  00000+0  42190-3 0  9990", "line2": "2 58701  97.4562 160.8353 0004898 324.8459  35.2454 15.24293345106318"}}, "geometry": {"type": "Point", "coordinates": [165.3697904248101, -28.528887007281774]}}, {"type": "Feature", "properties": {"norad_id": 58702, "name": "TIANMU-1 17", "group": "weather", "lat": 54.08509318738997, "lon": 151.27120314481382, "alt_km": 487.56934282671773, "timestamp": "2025-12-06T09:34:16.562080+00:00", "meta": {"OBJECT_NAME": "TIANMU-1 17", "OBJECT_ID": "2024-004C", "EPOCH": "2025-12-05T22:18:13.490784", "MEAN_MOTION": 15.24338425, "ECCENTRICITY": 0.00041434, "INCLINATION": 97.4597, "RA_OF_ASC_NODE": 161.2267, "ARG_OF_PERICENTER": 328.6832, "MEAN_ANOMALY": 31.4158, "EPHEMERIS_TYPE": 0, "CLASSIFICATION_TYPE": "U", "NORAD_CAT_ID": 58702, "ELEMENT_SET_NO": 999, "REV_AT_EPOCH": 10630, "BSTAR": 0.00044989999, "MEAN_MOTION_DOT": 0.00010944, "MEAN_MOTION_DDOT": 0}, "tle": {"line1": "1 58702U 24004C   25339.92932281  .00010944  00000+0  44990-3 0  9996", "line2": "2 58702  97.4597 161.2267 0004143 328.6832  31.4158 15.24338425106303"}}, "geometry": {"type": "Point", "coordinates": [151.27120314481382, 54.08509318738997]}}, {"type": "Feature", "properties": {"norad_id": 58703, "name": "TIANMU-1 18", "group": "weather", "lat": 33.02633158880309, "lon": -13.224587402118239, "alt_km": 493.22986479941756, "timestamp": "2025-12-06T09:34:16.562090+00:00", "meta": {"OBJECT_NAME": "TIANMU-1 18", "OBJECT_ID": "2024-004D", "EPOCH": "2025-12-05T21:54:07.509024", "MEAN_MOTION": 15.24329398, "ECCENTRICITY": 0.00034846, "INCLINATION": 97.4615, "RA_OF_ASC_NODE": 161.404, "ARG_OF_PERICENTER": 330.75, "MEAN_ANOMALY": 29.3542, "EPHEMERIS_TYPE": 0, "CLASSIFICATION_TYPE": "U", "NORAD_CAT_ID": 58703, "ELEMENT_SET_NO": 999, "REV_AT_EPOCH": 10630, "BSTAR": 0.00042471343, "MEAN_MOTION_DOT": 0.00010323, "MEAN_MOTION_DDOT": 0}, "tle": {"line1": "1 58703U 24004D   25339.91258691  .00010323  00000+0  42471-3 0  9995", "line2": "2 58703  97.4615 161.4040 0003484 330.7500  29.3542 15.24329398106301"}}, "geometry": {"type": "Point", "coordinates": [-13.224587402118239, 33.02633158880309]}}, {"type": "Feature", "properties": {"norad_id": 58990, "name": "INSAT-3DS", "group": "weather", "lat": -0.022989773290247203, "lon": -58.89770672488522, "alt_km": 35780.86940019702, "timestamp": "2025-12-06T09:34:16.562102+00:00", "meta": {"OBJECT_NAME": "INSAT-3DS", "OBJECT_ID": "2024-033A", "EPOCH": "2025-12-05T22:31:38.798400", "MEAN_MOTION": 1.0026967, "ECCENTRICITY": 0.00017512, "INCLINATION": 0.0081, "RA_OF_ASC_NODE": 11.9149, "ARG_OF_PERICENTER": 251.018, "MEAN_ANOMALY": 232.0619, "EPHEMERIS_TYPE": 0, "CLASSIFICATION_TYPE": "U", "NORAD_CAT_ID": 58990, "ELEMENT_SET_NO": 999, "REV_AT_EPOCH": 4513, "BSTAR": 0, "MEAN_MOTION_DOT": -1.47e-06, "MEAN_MOTION_DDOT": 0}, "tle": {"line1": "1 58990U 24033A   25339.93864350 -.00000147  00000+0  00000+0 0  9994", "line2": "2 58990   0.0081  11.9149 0001751 251.0180 232.0619  1.00269670 45135"}}, "geometry": {"type": "Point", "coordinates": [-58.89770672488522, -0.022989773290247203]}}, {"type": "Feature", "properties": {"norad_id": 59051, "name": "METEOR-M2 4", "group": "weather", "lat": 53.1920489024033, "lon": 129.1805545368497, "alt_km": 813.994818155642, "timestamp": "2025-12-06T09:34:16.562116+00:00", "meta": {"OBJECT_NAME": "METEOR-M2 4", "OBJECT_ID": "2024-039A", "EPOCH": "2025-12-05T22:51:09.652320", "MEAN_MOTION": 14.22399605, "ECCENTRICITY": 0.00074161, "INCLINATION": 98.6757, "RA_OF_ASC_NODE": 296.9678, "ARG_OF_PERICENTER": 17.6659, "MEAN_ANOMALY": 342.4776, "EPHEMERIS_TYPE": 0, "CLASSIFICATION_TYPE": "U", "NORAD_CAT_ID": 59051, "ELEMENT_SET_NO": 999, "REV_AT_EPOCH": 9179, "BSTAR": 5.9379515e-05, "MEAN_MOTION_DOT": 8.9e-07, "MEAN_MOTION_DDOT": 0}, "tle": {"line1": "1 59051U 24039A   25339.95219505  .00000089  00000+0  59380-4 0  9991", "line2": "2 59051  98.6757 296.9678 0007416  17.6659 342.4776 14.22399605 91793"}}, "geometry": {"type": "Point", "coordinates": [129.1805545368497, 53.1920489024033]}}, {"type": "Feature", "properties": {"norad_id": 60133, "name": "GOES 19", "group": "weather", "lat": -0.0009772721260459453, "lon": 143.80440398655477, "alt_km": 35792.06949544662, "timestamp": "2025-12-06T09:34:16.562127+00:00", "meta": {"OBJECT_NAME": "GOES 19", "OBJECT_ID": "2024-119A", "EPOCH": "2025-12-05T21:53:54.631104", "MEAN_MOTION": 1.00270239, "ECCENTRICITY": 0.00014349, "INCLINATION": 0.0187, "RA_OF_ASC_NODE": 146.7323, "ARG_OF_PERICENTER": 152.9768, "MEAN_ANOMALY": 28.5465, "EPHEMERIS_TYPE": 0, "CLASSIFICATION_TYPE": "U", "NORAD_CAT_ID": 60133, "ELEMENT_SET_NO": 999, "REV_AT_EPOCH": 502, "BSTAR": 0, "MEAN_MOTION_DOT": -2.39e-06, "MEAN_MOTION_DDOT": 0}, "tle": {"line1": "1 60133U 24119A   25339.91243786 -.00000239  00000+0  00000+0 0  9995", "line2": "2 60133   0.0187 146.7323 0001434 152.9768  28.5465  1.00270239  5028"}}, "geometry": {"type": "Point", "coordinates": [143.80440398655477, -0.0009772721260459453]}}, {"type": "Feature", "properties": {"norad_id": 65815, "name": "FENGYUN 3H", "group": "weather", "lat": 60.372761296850975, "lon": -95.41232873760484, "alt_km": 819.3611255927499, "timestamp": "2025-12-06T09:34:16.562138+00:00", "meta": {"OBJECT_NAME": "FENGYUN 3H", "OBJECT_ID": "2025-219A", "EPOCH": "2025-12-05T21:26:38.175360", "MEAN_MOTION": 14.19901681, "ECCENTRICITY": 6.133e-05, "INCLINATION": 98.6574, "RA_OF_ASC_NODE": 279.6329, "ARG_OF_PERICENTER": 76.1673, "MEAN_ANOMALY": 283.9572, "EPHEMERIS_TYPE": 0, "CLASSIFICATION_TYPE": "U", "NORAD_CAT_ID": 65815, "ELEMENT_SET_NO": 999, "REV_AT_EPOCH": 995, "BSTAR": 0.00011703428, "MEAN_MOTION_DOT": 2.05e-06, "MEAN_MOTION_DDOT": 0}, "tle": {"line1": "1 65815U 25219A   25339.89349740  .00000205  00000+0  11703-3 0  9991", "line2": "2 65815  98.6574 279.6329 0000613  76.1673 283.9572 14.19901681  9953"}}, "geometry": {"type": "Point", "coordinates": [-95.41232873760484, 60.372761296850975]}}]}